TIANMU-1 10             
1 57402U 23101D   26065.82209242  .00009573  00000+0  34059-3 0  9990
2 57402  97.2752 119.0302 0006725 142.5727 217.5983 15.29156038145999
FENGYUN 3F              
1 57490U 23111A   26065.86933348  .00000113  00000+0  73908-4 0  9991
2 57490  98.6933 137.7490 0001298  80.9254 279.2069 14.19918736134343
ARKTIKA-M 2             
1 58584U 23198A   26064.07652728  .00000150  00000+0  00000+0 0  9992
2 58584  63.2186 165.9003 6877723 267.7621  18.8474  2.00612038 16239
TIANMU-1 11             
1 58645U 23205A   26065.85504715  .00008269  00000+0  32559-3 0  9995
2 58645  97.3545  89.0516 0009317  18.1060 342.0508 15.25833395121918
TIANMU-1 12             
1 58646U 23205B   26065.82174905  .00008466  00000+0  33416-3 0  9999
2 58646  97.3534  88.7984 0007124   4.6715 355.4588 15.25756921121895
TIANMU-1 13             
1 58647U 23205C   26065.85273954  .00008554  00000+0  33715-3 0  9997
2 58647  97.3562  89.0666 0006757 344.5389  15.5642 15.25807157121895
TIANMU-1 14             
1 58648U 23205D   26065.83726557  .00008203  00000+0  32359-3 0  9992
2 58648  97.3496  88.3228 0007662 348.0278  12.0777 15.25783921121893
TIANMU-1 19             
1 58660U 23208A   26065.85184900  .00012795  00000+0  44612-3 0  9997
2 58660  97.4388 181.8360 0004105 329.6699  30.4303 15.29759608121679
TIANMU-1 20             
1 58661U 23208B   26065.83836639  .00012055  00000+0  40528-3 0  9990
2 58661  97.4328 182.3533 0006412 336.7804  23.3147 15.30947821121756
TIANMU-1 21             
1 58662U 23208C   26065.84061399  .00014308  00000+0  45151-3 0  9995
2 58662  97.4382 184.6192 0006191 329.7801  30.3083 15.32947187121873
TIANMU-1 22             
1 58663U 23208D   26065.80335325  .00011847  00000+0  41818-3 0  9996
2 58663  97.4383 181.8004 0003386   4.0214 356.1053 15.29380009121674
TIANMU-1 15             
1 58700U 24004A   26065.83502200  .00008584  00000+0  33862-3 0  9998
2 58700  97.4667 252.0770 0006911   0.2275 359.8965 15.25783201120166
TIANMU-1 16             
1 58701U 24004B   26065.81857184  .00008733  00000+0  34418-3 0  9995
2 58701  97.4608 251.3857 0005449   6.4998 353.6310 15.25816131120160
TIANMU-1 17             
1 58702U 24004C   26065.86655071  .00009424  00000+0  37077-3 0  9994
2 58702  97.4641 251.8860 0004685   9.8419 350.2910 15.25853729120166
TIANMU-1 18             
1 58703U 24004D   26065.85162178  .00008970  00000+0  35361-3 0  9994
2 58703  97.4659 252.0821 0004094  11.2776 348.8553 15.25802804120167
INSAT-3DS               
1 58990U 24033A   26065.60322447 -.00000159  00000+0  00000+0 0  9994
2 58990   0.0500 260.9737 0002334 101.3712 101.1819  1.00270259 46039
METEOR-M2 4             
1 59051U 24039A   26065.90577208  .00000071  00000+0  51363-4 0  9994
2 59051  98.6903  26.5528 0008129 103.2689 256.9395 14.22416642104729
