[{"OBJECT_NAME":"TIANMU-1 10","OBJECT_ID":"2023-101D","EPOCH":"2026-03-06T19:43:48.785088","MEAN_MOTION":15.29156038,"ECCENTRICITY":0.0006725,"INCLINATION":97.2752,"RA_OF_ASC_NODE":119.0302,"ARG_OF_PERICENTER":142.5727,"MEAN_ANOMALY":217.5983,"EPHEMERIS_TYPE":0,"CLASSIFICATION_TYPE":"U","NORAD_CAT_ID":57402,"ELEMENT_SET_NO":999,"REV_AT_EPOCH":14599,"BSTAR":0.00034059,"MEAN_MOTION_DOT":9.573e-5,"MEAN_MOTION_DDOT":0},{"OBJECT_NAME":"FENGYUN 3F","OBJECT_ID":"2023-111A","EPOCH":"2026-03-06T20:51:50.412672","MEAN_MOTION":14.19918736,"ECCENTRICITY":0.0001298,"INCLINATION":98.6933,"RA_OF_ASC_NODE":137.749,"ARG_OF_PERICENTER":80.9254,"MEAN_ANOMALY":279.2069,"EPHEMERIS_TYPE":0,"CLASSIFICATION_TYPE":"U","NORAD_CAT_ID":57490,"ELEMENT_SET_NO":999,"REV_AT_EPOCH":13434,"BSTAR":7.3908e-5,"MEAN_MOTION_DOT":1.13e-6,"MEAN_MOTION_DDOT":0},{"OBJECT_NAME":"ARKTIKA-M 2","OBJECT_ID":"2023-198A","EPOCH":"2026-03-05T01:50:11.956992","MEAN_MOTION":2.00612038,"ECCENTRICITY":0.68777232,"INCLINATION":63.2186,"RA_OF_ASC_NODE":165.9003,"ARG_OF_PERICENTER":267.7621,"MEAN_ANOMALY":18.8474,"EPHEMERIS_TYPE":0,"CLASSIFICATION_TYPE":"U","NORAD_CAT_ID":58584,"ELEMENT_SET_NO":999,"REV_AT_EPOCH":1623,"BSTAR":0,"MEAN_MOTION_DOT":1.5e-6,"MEAN_MOTION_DDOT":0},{"OBJECT_NAME":"TIANMU-1 11","OBJECT_ID":"2023-205A","EPOCH":"2026-03-06T20:31:16.073760","MEAN_MOTION":15.25833395,"ECCENTRICITY":0.0009317,"INCLINATION":97.3545,"RA_OF_ASC_NODE":89.0516,"ARG_OF_PERICENTER":18.106,"MEAN_ANOMALY":342.0508,"EPHEMERIS_TYPE":0,"CLASSIFICATION_TYPE":"U","NORAD_CAT_ID":58645,"ELEMENT_SET_NO":999,"REV_AT_EPOCH":12191,"BSTAR":0.00032559,"MEAN_MOTION_DOT":8.269e-5,"MEAN_MOTION_DDOT":0},{"OBJECT_NAME":"TIANMU-1 12","OBJECT_ID":"2023-205B","EPOCH":"2026-03-06T19:43:19.117920","MEAN_MOTION":15.25756921,"ECCENTRICITY":0.0007124,"INCLINATION":97.3534,"RA_OF_ASC_NODE":88.7984,"ARG_OF_PERICENTER":4.6715,"MEAN_ANOMALY":355.4588,"EPHEMERIS_TYPE":0,"CLASSIFICATION_TYPE":"U","NORAD_CAT_ID":58646,"ELEMENT_SET_NO":999,"REV_AT_EPOCH":12189,"BSTAR":0.00033416,"MEAN_MOTION_DOT":8.466e-5,"MEAN_MOTION_DDOT":0},{"OBJECT_NAME":"TIANMU-1 13","OBJECT_ID":"2023-205C","EPOCH":"2026-03-06T20:27:56.696256","MEAN_MOTION":15.25807157,"ECCENTRICITY":0.0006757,"INCLINATION":97.3562,"RA_OF_ASC_NODE":89.0666,"ARG_OF_PERICENTER":344.5389,"MEAN_ANOMALY":15.5642,"EPHEMERIS_TYPE":0,"CLASSIFICATION_TYPE":"U","NORAD_CAT_ID":58647,"ELEMENT_SET_NO":999,"REV_AT_EPOCH":12189,"BSTAR":0.00033715,"MEAN_MOTION_DOT":8.554e-5,"MEAN_MOTION_DDOT":0},{"OBJECT_NAME":"TIANMU-1 14","OBJECT_ID":"2023-205D","EPOCH":"2026-03-06T20:05:39.745248","MEAN_MOTION":15.25783921,"ECCENTRICITY":0.0007662,"INCLINATION":97.3496,"RA_OF_ASC_NODE":88.3228,"ARG_OF_PERICENTER":348.0278,"MEAN_ANOMALY":12.0777,"EPHEMERIS_TYPE":0,"CLASSIFICATION_TYPE":"U","NORAD_CAT_ID":58648,"ELEMENT_SET_NO":999,"REV_AT_EPOCH":12189,"BSTAR":0.00032359,"MEAN_MOTION_DOT":8.203e-5,"MEAN_MOTION_DDOT":0},{"OBJECT_NAME":"TIANMU-1 19","OBJECT_ID":"2023-208A","EPOCH":"2026-03-06T20:26:39.753600","MEAN_MOTION":15.29759608,"ECCENTRICITY":0.0004105,"INCLINATION":97.4388,"RA_OF_ASC_NODE":181.836,"ARG_OF_PERICENTER":329.6699,"MEAN_ANOMALY":30.4303,"EPHEMERIS_TYPE":0,"CLASSIFICATION_TYPE":"U","NORAD_CAT_ID":58660,"ELEMENT_SET_NO":999,"REV_AT_EPOCH":12167,"BSTAR":0.00044612,"MEAN_MOTION_DOT":0.00012795,"MEAN_MOTION_DDOT":0},{"OBJECT_NAME":"TIANMU-1 20","OBJECT_ID":"2023-208B","EPOCH":"2026-03-06T20:07:14.856096","MEAN_MOTION":15.30947821,"ECCENTRICITY":0.0006412,"INCLINATION":97.4328,"RA_OF_ASC_NODE":182.3533,"ARG_OF_PERICENTER":336.7804,"MEAN_ANOMALY":23.3147,"EPHEMERIS_TYPE":0,"CLASSIFICATION_TYPE":"U","NORAD_CAT_ID":58661,"ELEMENT_SET_NO":999,"REV_AT_EPOCH":12175,"BSTAR":0.00040528,"MEAN_MOTION_DOT":0.00012055,"MEAN_MOTION_DDOT":0},{"OBJECT_NAME":"TIANMU-1 21","OBJECT_ID":"2023-208C","EPOCH":"2026-03-06T20:10:29.048736","MEAN_MOTION":15.32947187,"ECCENTRICITY":0.0006191,"INCLINATION":97.4382,"RA_OF_ASC_NODE":184.6192,"ARG_OF_PERICENTER":329.7801,"MEAN_ANOMALY":30.3083,"EPHEMERIS_TYPE":0,"CLASSIFICATION_TYPE":"U","NORAD_CAT_ID":58662,"ELEMENT_SET_NO":999,"REV_AT_EPOCH":12187,"BSTAR":0.00045151,"MEAN_MOTION_DOT":0.00014308,"MEAN_MOTION_DDOT":0},{"OBJECT_NAME":"TIANMU-1 22","OBJECT_ID":"2023-208D","EPOCH":"2026-03-06T19:16:49.720800","MEAN_MOTION":15.29380009,"ECCENTRICITY":0.0003386,"INCLINATION":97.4383,"RA_OF_ASC_NODE":181.8004,"ARG_OF_PERICENTER":4.0214,"MEAN_ANOMALY":356.1053,"EPHEMERIS_TYPE":0,"CLASSIFICATION_TYPE":"U","NORAD_CAT_ID":58663,"ELEMENT_SET_NO":999,"REV_AT_EPOCH":12167,"BSTAR":0.00041818,"MEAN_MOTION_DOT":0.00011847,"MEAN_MOTION_DDOT":0},{"OBJECT_NAME":"TIANMU-1 15","OBJECT_ID":"2024-004A","EPOCH":"2026-03-06T20:02:25.900800","MEAN_MOTION":15.25783201,"ECCENTRICITY":0.0006911,"INCLINATION":97.4667,"RA_OF_ASC_NODE":252.077,"ARG_OF_PERICENTER":0.2275,"MEAN_ANOMALY":359.8965,"EPHEMERIS_TYPE":0,"CLASSIFICATION_TYPE":"U","NORAD_CAT_ID":58700,"ELEMENT_SET_NO":999,"REV_AT_EPOCH":12016,"BSTAR":0.00033862,"MEAN_MOTION_DOT":8.584e-5,"MEAN_MOTION_DDOT":0},{"OBJECT_NAME":"TIANMU-1 16","OBJECT_ID":"2024-004B","EPOCH":"2026-03-06T19:38:44.606976","MEAN_MOTION":15.25816131,"ECCENTRICITY":0.0005449,"INCLINATION":97.4608,"RA_OF_ASC_NODE":251.3857,"ARG_OF_PERICENTER":6.4998,"MEAN_ANOMALY":353.631,"EPHEMERIS_TYPE":0,"CLASSIFICATION_TYPE":"U","NORAD_CAT_ID":58701,"ELEMENT_SET_NO":999,"REV_AT_EPOCH":12016,"BSTAR":0.00034418,"MEAN_MOTION_DOT":8.733e-5,"MEAN_MOTION_DDOT":0},{"OBJECT_NAME":"TIANMU-1 17","OBJECT_ID":"2024-004C","EPOCH":"2026-03-06T20:47:49.981344","MEAN_MOTION":15.25853729,"ECCENTRICITY":0.0004685,"INCLINATION":97.4641,"RA_OF_ASC_NODE":251.886,"ARG_OF_PERICENTER":9.8419,"MEAN_ANOMALY":350.291,"EPHEMERIS_TYPE":0,"CLASSIFICATION_TYPE":"U","NORAD_CAT_ID":58702,"ELEMENT_SET_NO":999,"REV_AT_EPOCH":12016,"BSTAR":0.00037077,"MEAN_MOTION_DOT":9.424e-5,"MEAN_MOTION_DDOT":0},{"OBJECT_NAME":"TIANMU-1 18","OBJECT_ID":"2024-004D","EPOCH":"2026-03-06T20:26:20.121792","MEAN_MOTION":15.25802804,"ECCENTRICITY":0.0004094,"INCLINATION":97.4659,"RA_OF_ASC_NODE":252.0821,"ARG_OF_PERICENTER":11.2776,"MEAN_ANOMALY":348.8553,"EPHEMERIS_TYPE":0,"CLASSIFICATION_TYPE":"U","NORAD_CAT_ID":58703,"ELEMENT_SET_NO":999,"REV_AT_EPOCH":12016,"BSTAR":0.00035361,"MEAN_MOTION_DOT":8.97e-5,"MEAN_MOTION_DDOT":0},{"OBJECT_NAME":"INSAT-3DS","OBJECT_ID":"2024-033A","EPOCH":"2026-03-06T14:28:38.594208","MEAN_MOTION":1.00270259,"ECCENTRICITY":0.00023344,"INCLINATION":0.05,"RA_OF_ASC_NODE":260.9737,"ARG_OF_PERICENTER":101.3712,"MEAN_ANOMALY":101.1819,"EPHEMERIS_TYPE":0,"CLASSIFICATION_TYPE":"U","NORAD_CAT_ID":58990,"ELEMENT_SET_NO":999,"REV_AT_EPOCH":4603,"BSTAR":0,"MEAN_MOTION_DOT":-1.59e-6,"MEAN_MOTION_DDOT":0},{"OBJECT_NAME":"METEOR-M2 4","OBJECT_ID":"2024-039A","EPOCH":"2026-03-06T21:44:18.707712","MEAN_MOTION":14.22416642,"ECCENTRICITY":0.0008129,"INCLINATION":98.6903,"RA_OF_ASC_NODE":26.5528,"ARG_OF_PERICENTER":103.2689,"MEAN_ANOMALY":256.9395,"EPHEMERIS_TYPE":0,"CLASSIFICATION_TYPE":"U","NORAD_CAT_ID":59051,"ELEMENT_SET_NO":999,"REV_AT_EPOCH":10472,"BSTAR":5.1363e-5,"MEAN_MOTION_DOT":7.1e-7,"MEAN_MOTION_DDOT":0}]
